[
  {
    "Id": "mp3KT0jgce1_4GoFBoGB_A",
    "Name": "19 GOLD",
    "Rating": 4.5,
    "Coordinates_Latitude": 47.65199076,
    "Coordinates_Longitude": -122.3504696,
    "Address": "3601 Fremont Ave N",
    "City": "Seattle",
    "Zip_Code": 98103,
    "State": "WA",
    "Phone": 12065880952
  },
  {
    "Id": "xI0ayTQVBIAkZpJiWk-SNQ",
    "Name": "20 OZ TEA",
    "Rating": 4.5,
    "Coordinates_Latitude": 47.63568,
    "Coordinates_Longitude": -122.32591,
    "Address": "1823 Eastlake Ave E",
    "City": "Seattle",
    "Zip_Code": 98102,
    "State": "WA",
    "Phone": 12067126027
  },
  {
    "Id": "rnp2iSwSf3tFQm6HbggLyw",
    "Name": "85°C Bakery Cafe",
    "Rating": 3.5,
    "Coordinates_Latitude": 47.59897,
    "Coordinates_Longitude": -122.32713,
    "Address": "501 S Jackson St",
    "City": "Seattle",
    "Zip_Code": 98104,
    "State": "WA",
    "Phone": 12064675540
  },
  {
    "Id": "aehEcMofRIwUiiLXPAOYXw",
    "Name": "Ambrosia Cafe",
    "Rating": 3.5,
    "Coordinates_Latitude": 47.5982,
    "Coordinates_Longitude": -122.32542,
    "Address": "619 S King St",
    "City": "Seattle",
    "Zip_Code": 98104,
    "State": "WA",
    "Phone": 12066239028
  },
  {
    "Id": "BXjaJd5j3BJl8K4EVdSvEA",
    "Name": "Atulea",
    "Rating": 4.5,
    "Coordinates_Latitude": 47.61691,
    "Coordinates_Longitude": -122.31718,
    "Address": "1715 12th Ave",
    "City": "Seattle",
    "Zip_Code": 98122,
    "State": "WA",
    "Phone": 12064135903
  },
  {
    "Id": "kP9i1LtPEUQ_xzAZasgvPQ",
    "Name": "Bambu",
    "Rating": 4,
    "Coordinates_Latitude": 47.66163,
    "Coordinates_Longitude": -122.31339,
    "Address": "4511 University Way NE",
    "City": "Seattle",
    "Zip_Code": 98105,
    "State": "WA",
    "Phone": 12065882227
  },
  {
    "Id": "gXRtRRpbeSdkoJFW-gwk1A",
    "Name": "BAMBU",
    "Rating": 4,
    "Coordinates_Latitude": 47.59785,
    "Coordinates_Longitude": -122.32338,
    "Address": "516 7th Ave S",
    "City": "Seattle",
    "Zip_Code": 98104,
    "State": "WA",
    "Phone": 12065380399
  },
  {
    "Id": "5XwHWgN90kae2IeTe7eXOQ",
    "Name": "Beetle Cafe",
    "Rating": 4,
    "Coordinates_Latitude": 47.6608,
    "Coordinates_Longitude": -122.31283,
    "Address": "4334 University Way NE",
    "City": "Seattle",
    "Zip_Code": 98105,
    "State": "WA",
    "Phone": 12065470977
  },
  {
    "Id": "17L8sQyrmtcB6rsR8SPQrA",
    "Name": "Blackball Desserts",
    "Rating": 3,
    "Coordinates_Latitude": 47.59824497,
    "Coordinates_Longitude": -122.3248814,
    "Address": "651 S King St",
    "City": "Seattle",
    "Zip_Code": 98104,
    "State": "WA",
    "Phone": 12065380596
  },
  {
    "Id": "Iec1c5Zca-jNme0kfJuFIg",
    "Name": "Blackball Desserts",
    "Rating": 3.5,
    "Coordinates_Latitude": 47.799471,
    "Coordinates_Longitude": -122.331318,
    "Address": "22001 Hwy 99",
    "City": "Edmonds",
    "Zip_Code": 98026,
    "State": "WA",
    "Phone": 14256739711
  },
  {
    "Id": "F5XwNjPQp_234lP986yeWg",
    "Name": "Blackbird Seattle",
    "Rating": 4,
    "Coordinates_Latitude": 47.62036,
    "Coordinates_Longitude": -122.19322,
    "Address": "11004 NE 11th St",
    "City": "Bellevue",
    "Zip_Code": 98004,
    "State": "WA",
    "Phone": 14255982111
  },
  {
    "Id": "4FKoEQz5Tu9qpQEAcET5gQ",
    "Name": "Blank Space Cafe - Green Lake",
    "Rating": 3.5,
    "Coordinates_Latitude": 47.68097,
    "Coordinates_Longitude": -122.32475,
    "Address": "7214 Woodlawn Ave NE",
    "City": "Seattle",
    "Zip_Code": 98115,
    "State": "WA",
    "Phone": 12064204348
  },
  {
    "Id": "O3BvKUxzp7N_08p5HQiW5A",
    "Name": "Blank Space Cafe - Seattle",
    "Rating": 3,
    "Coordinates_Latitude": 47.61319933,
    "Coordinates_Longitude": -122.3440449,
    "Address": "2126 2nd Ave",
    "City": "Seattle",
    "Zip_Code": 98121,
    "State": "WA",
    "Phone": 12064482617
  },
  {
    "Id": "uy-0d4POQHK1g9A3QYGDPw",
    "Name": "Böba",
    "Rating": 4,
    "Coordinates_Latitude": 47.7905299,
    "Coordinates_Longitude": -122.21705,
    "Address": "22833 Bothell-Everett Hwy",
    "City": "Bothell",
    "Zip_Code": 98021,
    "State": "WA",
    "Phone": 14254839131
  },
  {
    "Id": "DD2UG9WnSJMvg2QHsQJeZQ",
    "Name": "Boba Up",
    "Rating": 4,
    "Coordinates_Latitude": 47.65807,
    "Coordinates_Longitude": -122.31354,
    "Address": "4141 University Way NE",
    "City": "Seattle",
    "Zip_Code": 98105,
    "State": "WA",
    "Phone": 12065478800
  },
  {
    "Id": "Nfup0tT2C1Fptjibu15HSg",
    "Name": "Bobachine",
    "Rating": 3,
    "Coordinates_Latitude": 47.61083,
    "Coordinates_Longitude": -122.33669,
    "Address": "1514 4th Ave",
    "City": "Seattle",
    "Zip_Code": 98101,
    "State": "WA",
    "Phone": 12064472622
  },
  {
    "Id": "ISHrur1Mkqhvp921Ei_QhQ",
    "Name": "BobaLust Tea House",
    "Rating": 4,
    "Coordinates_Latitude": 47.46093,
    "Coordinates_Longitude": -122.25343,
    "Address": "319 Tukwila Pkwy",
    "City": "Tukwila",
    "Zip_Code": 98188,
    "State": "WA",
    "Phone": ""
  },
  {
    "Id": "5oFtM6xwp4Z9aSHtFdEaHw",
    "Name": "Braganza Tea",
    "Rating": 4,
    "Coordinates_Latitude": 47.70498009,
    "Coordinates_Longitude": -122.3258396,
    "Address": "401 NE Northgate Way",
    "City": "Seattle",
    "Zip_Code": 98125,
    "State": "WA",
    "Phone": 12069627356
  },
  {
    "Id": "EoupzbxGRSEJpPhWx-NttQ",
    "Name": "Bubble Tea Fresh Fruit Juice",
    "Rating": 4,
    "Coordinates_Latitude": 47.59893,
    "Coordinates_Longitude": -122.31779,
    "Address": "1043 S Jackson St",
    "City": "Seattle",
    "Zip_Code": 98104,
    "State": "WA",
    "Phone": 12063295979
  },
  {
    "Id": "kV3_GeoCA8ZIJzZaaIuPfg",
    "Name": "C Fruit Life",
    "Rating": 4,
    "Coordinates_Latitude": 47.65714,
    "Coordinates_Longitude": -122.31404,
    "Address": "4106 Brooklyn Ave NE",
    "City": "Seattle",
    "Zip_Code": 98105,
    "State": "WA",
    "Phone": 12064026171
  },
  {
    "Id": "qA-7qg47NIeKPDCKd-WeaQ",
    "Name": "Cafe O'Dessert",
    "Rating": 4,
    "Coordinates_Latitude": 47.66389,
    "Coordinates_Longitude": -122.31339,
    "Address": "4727 University Way NE",
    "City": "Seattle",
    "Zip_Code": 98105,
    "State": "WA",
    "Phone": 12065225266
  },
  {
    "Id": "gMtd8zWdeVDHHn7EniAhmA",
    "Name": "Chatime",
    "Rating": 3.5,
    "Coordinates_Latitude": 47.66325,
    "Coordinates_Longitude": -122.31452,
    "Address": "4701 Brooklyn Ave NE",
    "City": "Seattle",
    "Zip_Code": 98105,
    "State": "WA",
    "Phone": 12068586906
  },
  {
    "Id": "OY8SMbc31wXMcHs5UzqsUw",
    "Name": "Citra",
    "Rating": 4.5,
    "Coordinates_Latitude": 47.66381741,
    "Coordinates_Longitude": -122.3129714,
    "Address": "4730 University Way NE",
    "City": "Seattle",
    "Zip_Code": 98105,
    "State": "WA",
    "Phone": 12063279012
  },
  {
    "Id": "BsnctWRn5l0-nCZfPsB_Ig",
    "Name": "CoCo Fresh Tea & Juice",
    "Rating": 4,
    "Coordinates_Latitude": 47.6176699,
    "Coordinates_Longitude": -122.19283,
    "Address": "11028 NE 8th St",
    "City": "Bellevue",
    "Zip_Code": 98004,
    "State": "WA",
    "Phone": 14253626962
  },
  {
    "Id": "aj8o1v1XjcbKF5hRCon13w",
    "Name": "Coffee Tree & Poke",
    "Rating": 4.5,
    "Coordinates_Latitude": 47.60586166,
    "Coordinates_Longitude": -122.32547,
    "Address": "613 9th Ave",
    "City": "Seattle",
    "Zip_Code": 98104,
    "State": "WA",
    "Phone": 12069923947
  },
  {
    "Id": "MkpxzydzUlGri6HXnKCI9w",
    "Name": "Cold Plate",
    "Rating": 4.5,
    "Coordinates_Latitude": 47.66776,
    "Coordinates_Longitude": -122.3127,
    "Address": "5240 University Way NE",
    "City": "Seattle",
    "Zip_Code": 98105,
    "State": "WA",
    "Phone": 12062945938
  },
  {
    "Id": "ZCtSkAulGzhWd1o0oWbYgQ",
    "Name": "Din Tai Fung",
    "Rating": 4,
    "Coordinates_Latitude": 47.61289,
    "Coordinates_Longitude": -122.33531,
    "Address": "600 Pine St",
    "City": "Seattle",
    "Zip_Code": 98101,
    "State": "WA",
    "Phone": 12066829888
  },
  {
    "Id": "Jtmxge2f2qVi_wvi5ODGxQ",
    "Name": "Ding Tea Seattle",
    "Rating": 3.5,
    "Coordinates_Latitude": 47.66386,
    "Coordinates_Longitude": -122.31339,
    "Address": "4725 University Way NE",
    "City": "Seattle",
    "Zip_Code": 98105,
    "State": "WA",
    "Phone": 12064567192
  },
  {
    "Id": "1ZnlSbwJpc9qwHyK8C0BfA",
    "Name": "Dreamy Drinks",
    "Rating": 4,
    "Coordinates_Latitude": 47.61125,
    "Coordinates_Longitude": -122.33493,
    "Address": "",
    "City": "Seattle",
    "Zip_Code": 98101,
    "State": "WA",
    "Phone": 14253820796
  },
  {
    "Id": "Km-xjUYYY6GvpI2YIa2iVw",
    "Name": "Drive Thru Boba",
    "Rating": 3.5,
    "Coordinates_Latitude": 47.61361,
    "Coordinates_Longitude": -122.20104,
    "Address": "10435 NE 4th St",
    "City": "Bellevue",
    "Zip_Code": 98004,
    "State": "WA",
    "Phone": ""
  },
  {
    "Id": "tuc7OHp9v7OSE-I36J1UFw",
    "Name": "Goatea",
    "Rating": 4,
    "Coordinates_Latitude": 47.28350758,
    "Coordinates_Longitude": -122.3626998,
    "Address": "35501 21st Ave SW",
    "City": "Federal Way",
    "Zip_Code": 98023,
    "State": "WA",
    "Phone": 12535177566
  },
  {
    "Id": "LQUecX5mXFJqKZWc4hjiKA",
    "Name": "Happy Lemon",
    "Rating": 4.5,
    "Coordinates_Latitude": 47.62576,
    "Coordinates_Longitude": -122.15473,
    "Address": "1645 140th Ave NE",
    "City": "Bellevue",
    "Zip_Code": 98005,
    "State": "WA",
    "Phone": 14256432460
  },
  {
    "Id": "_g_uT28EKysvhrZGgS-qbg",
    "Name": "Happy Lemon",
    "Rating": 4,
    "Coordinates_Latitude": 47.615121,
    "Coordinates_Longitude": -122.203117,
    "Address": "1031 Bellevue Sq",
    "City": "Bellevue",
    "Zip_Code": 98004,
    "State": "WA",
    "Phone": 14254535352
  },
  {
    "Id": "UhMQX8YY6PTsyBENZfUm3w",
    "Name": "HI B3AR",
    "Rating": 3,
    "Coordinates_Latitude": 47.5995,
    "Coordinates_Longitude": -122.32033,
    "Address": "900 S Jackson St",
    "City": "Seattle",
    "Zip_Code": 98104,
    "State": "WA",
    "Phone": 12066240183
  },
  {
    "Id": "lhP8uwAgPZ5Fs6wkXuUdNw",
    "Name": "Hi Tea Cafe",
    "Rating": 3.5,
    "Coordinates_Latitude": 47.6200594,
    "Coordinates_Longitude": -122.32064,
    "Address": "202 Broadway E",
    "City": "Seattle",
    "Zip_Code": 98102,
    "State": "WA",
    "Phone": 12063291756
  },
  {
    "Id": "iC6X9Z_ZhUfCaycZurGlUA",
    "Name": "iki tea",
    "Rating": 4,
    "Coordinates_Latitude": 47.61424,
    "Coordinates_Longitude": -122.3198,
    "Address": "916 E Pike St",
    "City": "Seattle",
    "Zip_Code": 98122,
    "State": "WA",
    "Phone": ""
  },
  {
    "Id": "rFC0LUPyhgyP7UC9ehkrHw",
    "Name": "Jazen Tea",
    "Rating": 4,
    "Coordinates_Latitude": 47.5977133,
    "Coordinates_Longitude": -122.325291,
    "Address": "618 S Weller St",
    "City": "Seattle",
    "Zip_Code": 98104,
    "State": "WA",
    "Phone": 12066247189
  },
  {
    "Id": "QSOJshpTpNWClcUmdvyAYw",
    "Name": "Kung Fu Tea",
    "Rating": 4,
    "Coordinates_Latitude": 47.66402896,
    "Coordinates_Longitude": -122.3128109,
    "Address": "4730 University Way NE",
    "City": "Seattle",
    "Zip_Code": 98105,
    "State": "WA",
    "Phone": 12062943900
  },
  {
    "Id": "wG-dNNFINqU_Y--sT4kHvw",
    "Name": "Kung Fu Tea",
    "Rating": 4.5,
    "Coordinates_Latitude": 47.61256622,
    "Coordinates_Longitude": -122.1987985,
    "Address": "288 106th Ave NE",
    "City": "Bellevue",
    "Zip_Code": 98004,
    "State": "WA",
    "Phone": 12064579529
  },
  {
    "Id": "XyeRCD7AAkwzPL8stT_Law",
    "Name": "Mee Sum",
    "Rating": 3.5,
    "Coordinates_Latitude": 47.66105,
    "Coordinates_Longitude": -122.313376,
    "Address": "4343 University Way NE",
    "City": "Seattle",
    "Zip_Code": 98105,
    "State": "WA",
    "Phone": 12066327298
  },
  {
    "Id": "G9eADRZysfU5Po9IFhkZEQ",
    "Name": "Meet Fresh",
    "Rating": 3.5,
    "Coordinates_Latitude": 47.60363,
    "Coordinates_Longitude": -122.13226,
    "Address": "15552 Lake Hills Blvd",
    "City": "Bellevue",
    "Zip_Code": 98007,
    "State": "WA",
    "Phone": 14254498748
  },
  {
    "Id": "qa-jr4OLreg4OtkUDqLUeA",
    "Name": "Melody Boba House",
    "Rating": 4,
    "Coordinates_Latitude": 47.32050099,
    "Coordinates_Longitude": -122.3128251,
    "Address": "31406 Pacific Hwy S",
    "City": "Federal Way",
    "Zip_Code": 98003,
    "State": "WA",
    "Phone": 12066517414
  },
  {
    "Id": "qKkHnsG-f4-BhdkR6yRrgw",
    "Name": "Moore Coffee Shop",
    "Rating": 4.5,
    "Coordinates_Latitude": 47.611705,
    "Coordinates_Longitude": -122.3412531,
    "Address": "1930 2nd Ave",
    "City": "Seattle",
    "Zip_Code": 98101,
    "State": "WA",
    "Phone": 12068837044
  },
  {
    "Id": "H4YrQnNfd7X6vGBXxRztnA",
    "Name": "MR SAIGON",
    "Rating": 4,
    "Coordinates_Latitude": 47.60948,
    "Coordinates_Longitude": -122.33803,
    "Address": "215 Pike St",
    "City": "Seattle",
    "Zip_Code": 98101,
    "State": "WA",
    "Phone": 12063811268
  },
  {
    "Id": "a5VwhTHeo1C4_KI45T8f-A",
    "Name": "Mr. Wish",
    "Rating": 4.5,
    "Coordinates_Latitude": 47.62712,
    "Coordinates_Longitude": -122.14639,
    "Address": "14509 NE 20th St",
    "City": "Bellevue",
    "Zip_Code": 98007,
    "State": "WA",
    "Phone": 14252082222
  },
  {
    "Id": "5t7AE21vUB3CnxxkaaFsaQ",
    "Name": "Oasis Tea Zone",
    "Rating": 3.5,
    "Coordinates_Latitude": 47.6154,
    "Coordinates_Longitude": -122.32388,
    "Address": "606 E Pine St",
    "City": "Seattle",
    "Zip_Code": 98122,
    "State": "WA",
    "Phone": 12063974333
  },
  {
    "Id": "M4BjcVhOEjVgeF8EeSjZPQ",
    "Name": "Oasis Tea Zone",
    "Rating": 3.5,
    "Coordinates_Latitude": 47.59765186,
    "Coordinates_Longitude": -122.326559,
    "Address": "519 6th Ave S",
    "City": "Seattle",
    "Zip_Code": 98104,
    "State": "WA",
    "Phone": 12064478098
  },
  {
    "Id": "_DMmc-dEB1qJrj48M3-KpA",
    "Name": "Oh Bear Café & Teahouse",
    "Rating": 4,
    "Coordinates_Latitude": 47.6635,
    "Coordinates_Longitude": -122.31609,
    "Address": "4708 11th Ave NE",
    "City": "Seattle",
    "Zip_Code": 98105,
    "State": "WA",
    "Phone": 12068233688
  },
  {
    "Id": "WypboGIF_sUhemucdV1wlQ",
    "Name": "Over The Rainbow Tea Bar",
    "Rating": 4,
    "Coordinates_Latitude": 47.4894447,
    "Coordinates_Longitude": -122.1540903,
    "Address": "4820 4th St",
    "City": "Renton",
    "Zip_Code": 98059,
    "State": "WA",
    "Phone": 14255725764
  },
  {
    "Id": "hM03ua-PXyjifojJQUAqNw",
    "Name": "Pearls Tea & Cafe",
    "Rating": 4,
    "Coordinates_Latitude": 47.55914,
    "Coordinates_Longitude": -122.36263,
    "Address": "4800 Delridge Way SW",
    "City": "Seattle",
    "Zip_Code": 98106,
    "State": "WA",
    "Phone": 12069376036
  },
  {
    "Id": "R1U9Xh2pkCsvWB9QPTYFww",
    "Name": "Pochi Lifestyle",
    "Rating": 3.5,
    "Coordinates_Latitude": 47.85025406,
    "Coordinates_Longitude": -122.250061,
    "Address": "1211 164th St SW",
    "City": "Lynnwood",
    "Zip_Code": 98087,
    "State": "WA",
    "Phone": 14259673435
  },
  {
    "Id": "iI2Q70j_xgua1KUqXkHuWA",
    "Name": "Qq by Facing East",
    "Rating": 4,
    "Coordinates_Latitude": 47.61701,
    "Coordinates_Longitude": -122.34326,
    "Address": "2325 6th Ave",
    "City": "Seattle",
    "Zip_Code": 98121,
    "State": "WA",
    "Phone": 12064203408
  },
  {
    "Id": "X3OpfR6P4B-WODm1LMiUoQ",
    "Name": "Regent Bakery & Cafe",
    "Rating": 4,
    "Coordinates_Latitude": 47.615436,
    "Coordinates_Longitude": -122.314095,
    "Address": "1404 E Pine St",
    "City": "Seattle",
    "Zip_Code": 98122,
    "State": "WA",
    "Phone": 12067438866
  },
  {
    "Id": "Pz1XFeKiX8dY4ty4rGHVAA",
    "Name": "S Level Tea",
    "Rating": 4.5,
    "Coordinates_Latitude": 47.44002,
    "Coordinates_Longitude": -122.22253,
    "Address": "18123 E Valley Hwy",
    "City": "Kent",
    "Zip_Code": 98032,
    "State": "WA",
    "Phone": 12069092212
  },
  {
    "Id": "nDvwrhWdB7kjIwn2Z83lSQ",
    "Name": "Seattle Best Tea",
    "Rating": 4.5,
    "Coordinates_Latitude": 47.59846,
    "Coordinates_Longitude": -122.32731,
    "Address": "506 S King St",
    "City": "Seattle",
    "Zip_Code": 98104,
    "State": "WA",
    "Phone": 12067499855
  },
  {
    "Id": "0kqpRFtiDOVre6aeHKyNoQ",
    "Name": "Shake It",
    "Rating": 4.5,
    "Coordinates_Latitude": 47.71271,
    "Coordinates_Longitude": -122.18698,
    "Address": "12561 116th Ave NE",
    "City": "Kirkland",
    "Zip_Code": 98034,
    "State": "WA",
    "Phone": 14258180882
  },
  {
    "Id": "RJc4imo4ypsU5k3VeIV2qw",
    "Name": "Sharetea",
    "Rating": 4,
    "Coordinates_Latitude": 47.66134028,
    "Coordinates_Longitude": -122.3162587,
    "Address": "1100 NE 45th St",
    "City": "Seattle",
    "Zip_Code": 98105,
    "State": "WA",
    "Phone": 12066321038
  },
  {
    "Id": "Yb08Q7BFawBi2g2W2d4Xqg",
    "Name": "Sharetea",
    "Rating": 4,
    "Coordinates_Latitude": 47.607,
    "Coordinates_Longitude": -122.32039,
    "Address": "530 Broadway",
    "City": "Seattle",
    "Zip_Code": 98122,
    "State": "WA",
    "Phone": 14258298644
  },
  {
    "Id": "Ropo7D_oYeC8vUIHmAiKRA",
    "Name": "Sharetea",
    "Rating": 4.5,
    "Coordinates_Latitude": 47.49842,
    "Coordinates_Longitude": -122.20289,
    "Address": "911 N 10th Pl",
    "City": "Renton",
    "Zip_Code": 98057,
    "State": "WA",
    "Phone": 14254968195
  },
  {
    "Id": "CLMT6xTZ8jpot28Tl3XwOg",
    "Name": "Sharetea",
    "Rating": 4,
    "Coordinates_Latitude": 47.62042,
    "Coordinates_Longitude": -122.19332,
    "Address": "1112 110th Ave Ne",
    "City": "Bellevue",
    "Zip_Code": 98004,
    "State": "WA",
    "Phone": 14254433138
  },
  {
    "Id": "9dDDhkdAJbDCSajWJYMqrw",
    "Name": "Swan Healthy Gourmet",
    "Rating": 4,
    "Coordinates_Latitude": 47.61767467,
    "Coordinates_Longitude": -122.3376412,
    "Address": "2100 9th Ave",
    "City": "Seattle",
    "Zip_Code": 98121,
    "State": "WA",
    "Phone": 12065356189
  },
  {
    "Id": "F18suFsmc9j5srBk36GXaA",
    "Name": "Tea Republik",
    "Rating": 4.5,
    "Coordinates_Latitude": 47.6620911,
    "Coordinates_Longitude": -122.3132793,
    "Address": "4527 University Way NE",
    "City": "Seattle",
    "Zip_Code": 98105,
    "State": "WA",
    "Phone": 12064977631
  },
  {
    "Id": "beCtdOgTiWo2A0nFvPEwmw",
    "Name": "The Bubble Tea Shop",
    "Rating": 2.5,
    "Coordinates_Latitude": 47.62198,
    "Coordinates_Longitude": -122.35166,
    "Address": "305 Harrison St",
    "City": "Seattle",
    "Zip_Code": 98109,
    "State": "WA",
    "Phone": 12064482383
  },
  {
    "Id": "wEsKFcjc1WlY_TFnQkKfvA",
    "Name": "The Moo Bar",
    "Rating": 3,
    "Coordinates_Latitude": 47.61736,
    "Coordinates_Longitude": -122.33804,
    "Address": "2124 Westlake Ave",
    "City": "Seattle",
    "Zip_Code": 98121,
    "State": "WA",
    "Phone": 12064673191
  },
  {
    "Id": "KEjW8gzaxuDp2tC39kluag",
    "Name": "Uwajimaya",
    "Rating": 4.5,
    "Coordinates_Latitude": 47.59683,
    "Coordinates_Longitude": -122.32719,
    "Address": "600 5th Ave S",
    "City": "Seattle",
    "Zip_Code": 98104,
    "State": "WA",
    "Phone": 12066246248
  },
  {
    "Id": "EPZeu6ALh4zvSs06cLvmcg",
    "Name": "Vivi Bubble Tea - Redmond",
    "Rating": 4,
    "Coordinates_Latitude": 47.67602,
    "Coordinates_Longitude": -122.12724,
    "Address": "8145 161st Ave NE",
    "City": "Redmond",
    "Zip_Code": 98052,
    "State": "WA",
    "Phone": 14259688200
  },
  {
    "Id": "LDsQvhA_cuYZE7EFxVvOnA",
    "Name": "Wann Yen",
    "Rating": 4.5,
    "Coordinates_Latitude": 47.65969,
    "Coordinates_Longitude": -122.31346,
    "Address": "1313 NE 43rd St",
    "City": "Seattle",
    "Zip_Code": 98105,
    "State": "WA",
    "Phone": 12064325902
  },
  {
    "Id": "muiocC26CyttXAalS23cuQ",
    "Name": "WOW Bubble Tea",
    "Rating": 4,
    "Coordinates_Latitude": 47.6628435,
    "Coordinates_Longitude": -122.3132573,
    "Address": "4553 University Way NE",
    "City": "Seattle",
    "Zip_Code": 98105,
    "State": "WA",
    "Phone": 12066331229
  },
  {
    "Id": "bffe-H3hllZ5ZPfROfureg",
    "Name": "YiFang Fruit Tea",
    "Rating": 4,
    "Coordinates_Latitude": 47.66504,
    "Coordinates_Longitude": -122.3128,
    "Address": "5000 University Way NE",
    "City": "Seattle",
    "Zip_Code": 98105,
    "State": "WA",
    "Phone": 12064202369
  },
  {
    "Id": "MWj_fdMMixz5gbdZZWDYPw",
    "Name": "Yifang Taiwan Fruit Tea",
    "Rating": 3.5,
    "Coordinates_Latitude": 47.830005,
    "Coordinates_Longitude": -122.274381,
    "Address": "3000 184th St SW",
    "City": "Lynnwood",
    "Zip_Code": 98037,
    "State": "WA",
    "Phone": 14254124864
  },
  {
    "Id": "BFTaYXgJDxQY38MQZAWZFQ",
    "Name": "Young Tea",
    "Rating": 4.5,
    "Coordinates_Latitude": 47.59733,
    "Coordinates_Longitude": -122.32597,
    "Address": "609 S Weller St",
    "City": "Seattle",
    "Zip_Code": 98104,
    "State": "WA",
    "Phone": 12066826688
  }
]